NOAA 17                 
1 27453U 02032A   26095.61575412  .00000314  00000+0  14999-3 0  9993
2 27453  98.8589  60.5387 0011208 197.1459 162.9343 14.26205740236647
NOAA 18                 
1 28654U 05018A   26095.50713025  .00000105  00000+0  78892-4 0  9997
2 28654  98.8123 176.2343 0014158   2.1953 357.9279 14.13716705 76047
NOAA 19                 
1 33591U 09005A   26095.56388786  .00000099  00000+0  76699-4 0  9996
2 33591  98.9559 166.3736 0012961 232.7909 127.2080 14.13462544884229
SUOMI NPP               
1 37849U 11061A   26095.59850316  .00000150  00000+0  92070-4 0  9996
2 37849  98.7904  36.9919 0002058 141.9188 218.2134 14.19501304748147
NOAA 20 (JPSS-1)        
1 43013U 17073A   26095.54221320  .00000118  00000+0  77049-4 0  9990
2 43013  98.7724  35.6676 0002041 101.4114 258.7291 14.19543446434165
NOAA 21 (JPSS-2)        
1 54234U 22150A   26095.57661823  .00000149  00000+0  91285-4 0  9990
2 54234  98.7586  35.5396 0002616  59.5574 300.5860 14.19559760176243
