[{"OBJECT_NAME":"NOAA 17","OBJECT_ID":"2002-032A","EPOCH":"2026-04-05T14:46:41.155968","MEAN_MOTION":14.2620574,"ECCENTRICITY":0.0011208,"INCLINATION":98.8589,"RA_OF_ASC_NODE":60.5387,"ARG_OF_PERICENTER":197.1459,"MEAN_ANOMALY":162.9343,"EPHEMERIS_TYPE":0,"CLASSIFICATION_TYPE":"U","NORAD_CAT_ID":27453,"ELEMENT_SET_NO":999,"REV_AT_EPOCH":23664,"BSTAR":0.0001499874,"MEAN_MOTION_DOT":3.14e-6,"MEAN_MOTION_DDOT":0},{"OBJECT_NAME":"NOAA 18","OBJECT_ID":"2005-018A","EPOCH":"2026-04-05T12:10:16.053600","MEAN_MOTION":14.13716705,"ECCENTRICITY":0.00141588,"INCLINATION":98.8123,"RA_OF_ASC_NODE":176.2343,"ARG_OF_PERICENTER":2.1953,"MEAN_ANOMALY":357.9279,"EPHEMERIS_TYPE":0,"CLASSIFICATION_TYPE":"U","NORAD_CAT_ID":28654,"ELEMENT_SET_NO":999,"REV_AT_EPOCH":7604,"BSTAR":7.8892125e-5,"MEAN_MOTION_DOT":1.05e-6,"MEAN_MOTION_DDOT":0},{"OBJECT_NAME":"NOAA 19","OBJECT_ID":"2009-005A","EPOCH":"2026-04-05T13:31:59.911104","MEAN_MOTION":14.13462544,"ECCENTRICITY":0.00129612,"INCLINATION":98.9559,"RA_OF_ASC_NODE":166.3736,"ARG_OF_PERICENTER":232.7909,"MEAN_ANOMALY":127.208,"EPHEMERIS_TYPE":0,"CLASSIFICATION_TYPE":"U","NORAD_CAT_ID":33591,"ELEMENT_SET_NO":999,"REV_AT_EPOCH":88422,"BSTAR":7.669912e-5,"MEAN_MOTION_DOT":9.9e-7,"MEAN_MOTION_DDOT":0},{"OBJECT_NAME":"SUOMI NPP","OBJECT_ID":"2011-061A","EPOCH":"2026-04-05T14:21:50.673024","MEAN_MOTION":14.19501304,"ECCENTRICITY":0.00020586,"INCLINATION":98.7904,"RA_OF_ASC_NODE":36.9919,"ARG_OF_PERICENTER":141.9188,"MEAN_ANOMALY":218.2134,"EPHEMERIS_TYPE":0,"CLASSIFICATION_TYPE":"U","NORAD_CAT_ID":37849,"ELEMENT_SET_NO":999,"REV_AT_EPOCH":74814,"BSTAR":9.2069686e-5,"MEAN_MOTION_DOT":1.5e-6,"MEAN_MOTION_DDOT":0},{"OBJECT_NAME":"NOAA 20 (JPSS-1)","OBJECT_ID":"2017-073A","EPOCH":"2026-04-05T13:00:47.220480","MEAN_MOTION":14.19543446,"ECCENTRICITY":0.00020419,"INCLINATION":98.7724,"RA_OF_ASC_NODE":35.6676,"ARG_OF_PERICENTER":101.4114,"MEAN_ANOMALY":258.7291,"EPHEMERIS_TYPE":0,"CLASSIFICATION_TYPE":"U","NORAD_CAT_ID":43013,"ELEMENT_SET_NO":999,"REV_AT_EPOCH":43416,"BSTAR":7.7049037e-5,"MEAN_MOTION_DOT":1.18e-6,"MEAN_MOTION_DDOT":0},{"OBJECT_NAME":"NOAA 21 (JPSS-2)","OBJECT_ID":"2022-150A","EPOCH":"2026-04-05T13:50:19.815072","MEAN_MOTION":14.1955976,"ECCENTRICITY":0.00026162,"INCLINATION":98.7586,"RA_OF_ASC_NODE":35.5396,"ARG_OF_PERICENTER":59.5574,"MEAN_ANOMALY":300.586,"EPHEMERIS_TYPE":0,"CLASSIFICATION_TYPE":"U","NORAD_CAT_ID":54234,"ELEMENT_SET_NO":999,"REV_AT_EPOCH":17624,"BSTAR":9.1285101e-5,"MEAN_MOTION_DOT":1.49e-6,"MEAN_MOTION_DDOT":0}]
